{
  "type": "FeatureCollection",
  "features": [
    {
      "type": "Feature",
      "properties": {
        "norad_id": 30454,
        "name": "FENGYUN 1C DEB",
        "group": "fengyun-1c-debris",
        "lat": -26.792528061627685,
        "lon": -37.091565095945846,
        "alt_km": 945.3183551486445,
        "timestamp": "2025-12-14T16:47:40.960143+00:00",
        "meta_object_name": "FENGYUN 1C DEB",
        "meta_object_id": "1999-025AFR",
        "meta_epoch": "2025-12-13T20:42:38.478240",
        "meta_mean_motion": 14.15397572,
        "meta_eccentricity": 0.01712022,
        "meta_inclination": 98.1338,
        "meta_ra_of_asc_node": 318.003,
        "meta_arg_of_pericenter": 191.8734,
        "meta_mean_anomaly": 198.3591,
        "meta_ephemeris_type": 0,
        "meta_classification_type": "U",
        "meta_norad_cat_id": 30454,
        "meta_element_set_no": 999,
        "meta_rev_at_epoch": 95976,
        "meta_bstar": 0.002375877,
        "meta_mean_motion_dot": 5.304e-05,
        "meta_mean_motion_ddot": 0,
        "tle_line1": "1 30454U 99025AFR 25347.86294535  .00005304  00000+0  23759-2 0  9993",
        "tle_line2": "2 30454  98.1338 318.0030 0171202 191.8734 198.3591 14.15397572959767"
      },
      "geometry": {
        "type": "Point",
        "coordinates": [
          -37.091565095945846,
          -26.792528061627685
        ]
      }
    },
    {
      "type": "Feature",
      "properties": {
        "norad_id": 30462,
        "name": "FENGYUN 1C DEB",
        "group": "fengyun-1c-debris",
        "lat": 9.369355285652276,
        "lon": -24.574298695167744,
        "alt_km": 930.4445881793763,
        "timestamp": "2025-12-14T16:47:40.960153+00:00",
        "meta_object_name": "FENGYUN 1C DEB",
        "meta_object_id": "1999-025AFZ",
        "meta_epoch": "2025-12-13T17:43:58.201248",
        "meta_mean_motion": 14.06265117,
        "meta_eccentricity": 0.01388693,
        "meta_inclination": 98.8165,
        "meta_ra_of_asc_node": 335.9571,
        "meta_arg_of_pericenter": 247.3887,
        "meta_mean_anomaly": 298.9232,
        "meta_ephemeris_type": 0,
        "meta_classification_type": "U",
        "meta_norad_cat_id": 30462,
        "meta_element_set_no": 999,
        "meta_rev_at_epoch": 96807,
        "meta_bstar": 0.00031218863,
        "meta_mean_motion_dot": 5.17e-06,
        "meta_mean_motion_ddot": 0,
        "tle_line1": "1 30462U 99025AFZ 25347.73886807  .00000517  00000+0  31219-3 0  9999",
        "tle_line2": "2 30462  98.8165 335.9571 0138869 247.3887 298.9232 14.06265117968079"
      },
      "geometry": {
        "type": "Point",
        "coordinates": [
          -24.574298695167744,
          9.369355285652276
        ]
      }
    },
    {
      "type": "Feature",
      "properties": {
        "norad_id": 30464,
        "name": "FENGYUN 1C DEB",
        "group": "fengyun-1c-debris",
        "lat": 80.94076567457823,
        "lon": -38.37881231334385,
        "alt_km": 926.7483200881043,
        "timestamp": "2025-12-14T16:47:40.960163+00:00",
        "meta_object_name": "FENGYUN 1C DEB",
        "meta_object_id": "1999-025AGB",
        "meta_epoch": "2025-12-13T03:02:15.991872",
        "meta_mean_motion": 14.10245868,
        "meta_eccentricity": 0.01083261,
        "meta_inclination": 98.8373,
        "meta_ra_of_asc_node": 37.4236,
        "meta_arg_of_pericenter": 257.4608,
        "meta_mean_anomaly": 128.3475,
        "meta_ephemeris_type": 0,
        "meta_classification_type": "U",
        "meta_norad_cat_id": 30464,
        "meta_element_set_no": 999,
        "meta_rev_at_epoch": 97069,
        "meta_bstar": 0.0001187973,
        "meta_mean_motion_dot": 1.78e-06,
        "meta_mean_motion_ddot": 0,
        "tle_line1": "1 30464U 99025AGB 25347.12657398  .00000178  00000+0  11880-3 0  9990",
        "tle_line2": "2 30464  98.8373  37.4236 0108326 257.4608 128.3475 14.10245868970694"
      },
      "geometry": {
        "type": "Point",
        "coordinates": [
          -38.37881231334385,
          80.94076567457823
        ]
      }
    },
    {
      "type": "Feature",
      "properties": {
        "norad_id": 30465,
        "name": "FENGYUN 1C DEB",
        "group": "fengyun-1c-debris",
        "lat": 75.98638908369446,
        "lon": -64.53632234306419,
        "alt_km": 768.622654038244,
        "timestamp": "2025-12-14T16:47:40.960174+00:00",
        "meta_object_name": "FENGYUN 1C DEB",
        "meta_object_id": "1999-025AGC",
        "meta_epoch": "2025-12-13T17:29:22.787808",
        "meta_mean_motion": 14.33891523,
        "meta_eccentricity": 0.0016644,
        "meta_inclination": 98.8276,
        "meta_ra_of_asc_node": 75.963,
        "meta_arg_of_pericenter": 27.6019,
        "meta_mean_anomaly": 103.4099,
        "meta_ephemeris_type": 0,
        "meta_classification_type": "U",
        "meta_norad_cat_id": 30465,
        "meta_element_set_no": 999,
        "meta_rev_at_epoch": 97372,
        "meta_bstar": 0.0021460024,
        "meta_mean_motion_dot": 5.946e-05,
        "meta_mean_motion_ddot": 0,
        "tle_line1": "1 30465U 99025AGC 25347.72873597  .00005946  00000+0  21460-2 0  9990",
        "tle_line2": "2 30465  98.8276  75.9630 0016644  27.6019 103.4099 14.33891523973729"
      },
      "geometry": {
        "type": "Point",
        "coordinates": [
          -64.53632234306419,
          75.98638908369446
        ]
      }
    },
    {
      "type": "Feature",
      "properties": {
        "norad_id": 30466,
        "name": "FENGYUN 1C DEB",
        "group": "fengyun-1c-debris",
        "lat": -38.28565963660382,
        "lon": 35.596264715989065,
        "alt_km": 777.2448186782685,
        "timestamp": "2025-12-14T16:47:40.960184+00:00",
        "meta_object_name": "FENGYUN 1C DEB",
        "meta_object_id": "1999-025AGD",
        "meta_epoch": "2025-12-13T16:13:55.341408",
        "meta_mean_motion": 14.22538709,
        "meta_eccentricity": 0.01164601,
        "meta_inclination": 98.6557,
        "meta_ra_of_asc_node": 27.685,
        "meta_arg_of_pericenter": 21.608,
        "meta_mean_anomaly": 102.5488,
        "meta_ephemeris_type": 0,
        "meta_classification_type": "U",
        "meta_norad_cat_id": 30466,
        "meta_element_set_no": 999,
        "meta_rev_at_epoch": 97364,
        "meta_bstar": 0.0014910988,
        "meta_mean_motion_dot": 3.526e-05,
        "meta_mean_motion_ddot": 0,
        "tle_line1": "1 30466U 99025AGD 25347.67633497  .00003526  00000+0  14911-2 0  9993",
        "tle_line2": "2 30466  98.6557  27.6850 0116460  21.6080 102.5488 14.22538709973642"
      },
      "geometry": {
        "type": "Point",
        "coordinates": [
          35.596264715989065,
          -38.28565963660382
        ]
      }
    },
    {
      "type": "Feature",
      "properties": {
        "norad_id": 30467,
        "name": "FENGYUN 1C DEB",
        "group": "fengyun-1c-debris",
        "lat": 74.00390727796085,
        "lon": -16.01207538557944,
        "alt_km": 794.1952165541052,
        "timestamp": "2025-12-14T16:47:40.960200+00:00",
        "meta_object_name": "FENGYUN 1C DEB",
        "meta_object_id": "1999-025AGE",
        "meta_epoch": "2025-12-13T23:48:52.617888",
        "meta_mean_motion": 14.1728047,
        "meta_eccentricity": 0.00653504,
        "meta_inclination": 98.6793,
        "meta_ra_of_asc_node": 15.4944,
        "meta_arg_of_pericenter": 123.9601,
        "meta_mean_anomaly": 305.3041,
        "meta_ephemeris_type": 0,
        "meta_classification_type": "U",
        "meta_norad_cat_id": 30467,
        "meta_element_set_no": 999,
        "meta_rev_at_epoch": 97195,
        "meta_bstar": 0.0010381465,
        "meta_mean_motion_dot": 2.1e-05,
        "meta_mean_motion_ddot": 0,
        "tle_line1": "1 30467U 99025AGE 25347.99227567  .00002100  00000+0  10381-2 0  9990",
        "tle_line2": "2 30467  98.6793  15.4944 0065350 123.9601 305.3041 14.17280470971953"
      },
      "geometry": {
        "type": "Point",
        "coordinates": [
          -16.01207538557944,
          74.00390727796085
        ]
      }
    },
    {
      "type": "Feature",
      "properties": {
        "norad_id": 30468,
        "name": "FENGYUN 1C DEB",
        "group": "fengyun-1c-debris",
        "lat": 50.54929177580295,
        "lon": 59.209000323186004,
        "alt_km": 768.7106518233322,
        "timestamp": "2025-12-14T16:47:40.960210+00:00",
        "meta_object_name": "FENGYUN 1C DEB",
        "meta_object_id": "1999-025AGF",
        "meta_epoch": "2025-12-13T19:08:16.973088",
        "meta_mean_motion": 14.20717914,
        "meta_eccentricity": 0.00718612,
        "meta_inclination": 98.9217,
        "meta_ra_of_asc_node": 69.3033,
        "meta_arg_of_pericenter": 36.9779,
        "meta_mean_anomaly": 81.6334,
        "meta_ephemeris_type": 0,
        "meta_classification_type": "U",
        "meta_norad_cat_id": 30468,
        "meta_element_set_no": 999,
        "meta_rev_at_epoch": 96825,
        "meta_bstar": 0.0017897366,
        "meta_mean_motion_dot": 3.917e-05,
        "meta_mean_motion_ddot": 0,
        "tle_line1": "1 30468U 99025AGF 25347.79741867  .00003917  00000+0  17897-2 0  9999",
        "tle_line2": "2 30468  98.9217  69.3033 0071861  36.9779  81.6334 14.20717914968258"
      },
      "geometry": {
        "type": "Point",
        "coordinates": [
          59.209000323186004,
          50.54929177580295
        ]
      }
    }
  ]
}